#aV2023 12  6  0  0  0.00000000     288 DD+AD WGS84 FIT  NGA
## 2291 259200.00000000   300.00000000 60284 0.0000000000000
+   32     1  2  3  4  5  6  7  8  9 10 11 12 13 14 15 16 17
+         18 19 20 21 22 23 24 25 26 27 28 29 30 31 32  0  0
+          0  0  0  0  0  0  0  0  0  0  0  0  0  0  0  0  0
+          0  0  0  0  0  0  0  0  0  0  0  0  0  0  0  0  0
+          0  0  0  0  0  0  0  0  0  0  0  0  0  0  0  0  0
++         2  2  2  2  2  2  2  2  2  2  2  2  2  2  2  2  2
++         2  2  2  2  2  2  2  2  2  2  2  2  2  2  2  0  0
++         0  0  0  0  0  0  0  0  0  0  0  0  0  0  0  0  0
++         0  0  0  0  0  0  0  0  0  0  0  0  0  0  0  0  0
++         0  0  0  0  0  0  0  0  0  0  0  0  0  0  0  0  0
%c cc cc ccc ccc cccc cccc cccc cccc ccccc ccccc ccccc ccccc
%c cc cc ccc ccc cccc cccc cccc cccc ccccc ccccc ccccc ccccc
%f  0.0000000  0.000000000  0.00000000000  0.000000000000000
%f  0.0000000  0.000000000  0.00000000000  0.000000000000000
%i    0    0    0    0      0      0      0      0         0
%i    0    0    0    0      0      0      0      0         0
/*      NGA, ST. LOUIS,MO.                                  
/*   EPHEMERIS COMPUTED FROM 2 DAYS OF DATA                 
/*   EPOCHA v8 SMOOTHER                                     
/*   G2139 IERS2010 SATIGS SATAPC                           
*  2023 12  6 12  0  0.00000000
P  1 -14098.023451  20930.330066   7368.942323    163.631942                    
V  1   1915.924706  -9923.124837  30751.023808      0.004160                    
P  2 -15416.169376  16419.549016  14414.306650   -519.344849                    
V  2   3242.996686 -17324.370391  24258.451747      0.052459                    
P  3 -19586.975523  11889.043122 -13481.220318     34.995130                    
V  3 -16958.509179    673.662992  25611.128422      0.271737                    
P  4  -8587.179017  13304.357664 -21294.829844    232.204410                    
V  4 -16538.260860 -21445.883165  -6854.829779      0.101885                    
P  5  25948.889397  -5767.918126   1075.894323   -153.085261                    
V  5   2017.690573   2136.950596 -31839.281243     -0.014428                    
P  6   9732.636864  12729.908370 -21090.543610    486.108861                    
V  6 -10855.760577  24608.697533   9906.793133     -0.111454                    
P  7  -3695.709245  24897.326543   8152.398318     -4.935182                    
V  7  -6659.078164   7952.480114 -29480.404640     -0.097554                    
P  8 -14970.088910   5478.811713  21219.735286   -155.615652                    
V  8 -17096.578499 -21016.027048  -6198.322541     -0.018711                    
P  9   2260.074501  20829.414973 -16378.930283     18.435137                    
V  9 -14673.114879 -14682.576789 -20864.635794      0.115874                    
P 10 -13438.942351 -11588.790446  20062.921666    -64.226005                    
V 10  24526.260922  -4289.900737  13766.829027     -0.015295                    
P 11  15702.201173   1163.016676 -21358.714714   -489.758922                    
V 11 -10770.297100  24949.110296  -6601.849204     -0.154770                    
P 12  20872.003748 -10499.500648 -12843.212378   -454.572741                    
V 12  15999.895609    984.583087  25830.781841     -0.040000                    
P 13  18090.733704   6045.877922  18370.983070    602.805517                    
V 13  10790.701021  21076.040297 -17160.604423      0.039463                    
P 14   9383.204521  13869.437906  20675.118822    263.256782                    
V 14 -25934.580909   3884.981754   8998.713276      0.106014                    
P 15  14516.634610  -7235.356719  20574.337621    104.204453                    
V 15  19370.800215  19282.117409  -6514.758415      0.037925                    
P 16 -26469.822036  -1493.321787  -4303.397139   -409.259066                    
V 16   4858.579036  -2535.306394 -30906.702389      0.070277                    
P 17  12091.346948  23161.038086   4775.770683    722.391244                    
V 17  -5197.835281  -3130.534036  31315.038529     -0.005110                    
P 18   3498.609356 -24548.343296   9272.458209   -498.926383                    
V 18   6700.937916  -9975.719045 -29159.234644     -0.103019                    
P 19  16812.737930  20230.813764  -5039.123519    408.708207                    
V 19   1441.683706   6286.482509  30897.732584      0.052331                    
P 20  23834.210348    775.966891 -11450.430824    398.028011                    
V 20 -13104.378322   7227.736583 -26841.764431     -0.019163                    
P 21 -16105.687609  12552.886768  16955.435914    142.322785                    
V 21   3907.922514 -20702.940788  20555.463932     -0.010710                    
P 22  16015.360371  11673.921443  17984.427626     70.956227                    
V 22 -21945.672242   2803.901231  18456.344035     -0.068427                    
P 23    601.809133 -15081.309702  21854.807421    111.204435                    
V 23  27332.824814  -4399.185678  -3972.094653      0.067418                    
P 24  14975.642127 -17230.518397  12813.965793   -387.423207                    
V 24  -1651.515530  17393.313182  24973.153301     -0.083386                    
P 25   9083.132331 -15652.741872 -19678.091257    480.381326                    
V 25  24313.123801  -2483.198370  13693.699976      0.015339                    
P 26 -22815.109881  -4923.774739 -13147.819726    211.400668                    
V 26  15440.676893  -6119.248670 -24396.784889     -0.029817                    
P 27 -20175.950547  -8616.706795  15004.299885    -79.477665                    
V 27 -10687.872561 -16213.756084 -22864.570716     -0.049256                    
P 28  -9361.973672 -14959.439242 -19873.939076    -63.116600                    
V 28   9617.794337 -23301.317353  13020.261168     -0.095668                    
P 29     24.125120 -20511.216191 -16862.156099   -609.955861                    
V 29  13222.033975  16819.843160 -20591.912741      0.001892                    
P 30   4360.206130  20712.785211  16004.079199   -460.523806                    
V 30  -9960.018920  17851.001031 -20809.127866      0.042348                    
P 31 -14144.320021  -6234.034852 -21799.886816   -226.376127                    
V 31  10845.876836 -24971.785359    512.883254     -0.003332                    
P 32 -16039.333073 -21289.337152   1206.913515   -593.554806                    
V 32   2873.142338   -641.874918  31565.206610     -0.039116                    
EOF
